satname,norad_id,inclination_deg,eccentricity,mean_motion_rev_per_day,perigee_km,apogee_km,l1,l2
STARLINK-1234,45190,53.033,0.0003071,15.86225195,310.82229586109133,314.93191672517605,1 45190U 20012N   26197.61458706  .00100417  00000+0  39311-3 0  9998,2 45190  53.0330  45.4264 0003071 260.4639  99.6038 15.86225195356161
STARLINK-1269,45197,53.1545,0.0003335,15.38093174,449.4705520815369,454.0260855891993,1 45197U 20012V   26197.16469205  .00026000  00000+0  69120-3 0  9997,2 45197  53.1545 160.0573 0003335  47.2785 312.8500 15.38093174354620
STARLINK-1154,45198,53.0404,0.0004215,15.66770716,365.30744245818096,370.99456324458424,1 45198U 20012W   26197.03208104  .00030991  00000+0  29258-3 0  9995,2 45198  53.0404 107.1808 0004215  93.9888 266.1609 15.66770716355297
STARLINK-1199,45201,53.1544,0.000566,15.3810269,447.8544493743966,455.58584766652166,1 45201U 20012Z   26197.85106928  .00013871  00000+0  37396-3 0  9991,2 45201  53.1544 141.1049 0005660  49.9078 310.2421 15.38102690354976
STARLINK-1209,45206,53.0341,0.0001242,15.74949551,343.9397580926243,345.6097293697667,1 45206U 20012AE  26197.62146781  .00050083  00000+0  33306-3 0  9995,2 45206  53.0341  62.8809 0001242 250.8152 109.2732 15.74949551355074
STARLINK-1231,45212,53.0381,0.0002885,15.30210095,473.2077443585167,477.16211111081884,1 45212U 20012AL  26197.24360284  .00020432  00000+0  69977-3 0  9994,2 45212  53.0381 140.8181 0002885 103.4816 256.6505 15.30210095354855
STARLINK-1271,45217,53.1554,0.000512,15.38306992,447.6188439754742,454.6119984547986,1 45217U 20012AR  26197.84386686  .00030485  00000+0  80245-3 0  9999,2 45217  53.1554 141.2094 0005120  58.5294 301.6210 15.38306992354973
STARLINK-1191,45222,53.1526,0.0002656,15.42791507,436.06469874610593,439.6853643372606,1 45222U 20012AW  26197.06991298  .00035121  00000+0  79582-3 0  9994,2 45222  53.1526 116.7006 0002656  42.0490 318.0720 15.42791507355250
STARLINK-1212,45223,53.0382,0.00013,15.73608565,347.71911365956385,349.4680636126095,1 45223U 20012AX  26197.70645380  .00045424  00000+0  32061-3 0  9992,2 45223  53.0382  78.1190 0001300 194.0581 166.0401 15.73608565355824
STARLINK-1215,45225,53.1546,0.0005154,15.38377075,447.3883188401551,454.427698435059,1 45225U 20012AZ  26197.19018520  .00025413  00000+0  66955-3 0  9992,2 45225  53.1546 118.5143 0005154  59.3166 300.8346 15.38377075355195
STARLINK-1221,45227,53.0648,0.0002881,15.46589452,424.7513053162247,428.67225918455733,1 45227U 20012BB  26197.64869740  .00010331  00000+0  21250-3 0  9994,2 45227  53.0648  16.4701 0002881  73.0750 287.0572 15.46589452356631
STARLINK-1222,45228,53.0518,0.000326,15.57760746,391.93157388106465,396.34709805211514,1 45228U 20012BC  26196.89881720  .00022485  00000+0  30306-3 0  9998,2 45228  53.0518  84.3641 0003260 100.6252 259.5126 15.57760746355559
STARLINK-1226,45229,53.1535,0.0004927,15.48260792,418.4633642420995,425.1640356618309,1 45229U 20012BD  26197.76294731  .00037344  00000+0  70126-3 0  9990,2 45229  53.1535 109.2688 0004927  63.9492 296.2023 15.48260792355310
STARLINK-1227,45230,53.1509,0.0004525,15.4826895,418.71284658733657,424.86678035352725,1 45230U 20012BE  26197.18948487  .00034892  00000+0  65583-3 0  9998,2 45230  53.1509 112.0801 0004525  54.7794 305.3638 15.48268950355340
STARLINK-1246,45235,53.1539,0.0005262,15.38365749,447.3480660600808,454.5349883020863,1 45235U 20012BK  26197.29799904  .00027026  00000+0  71151-3 0  9992,2 45235  53.1539 159.0234 0005262  19.7790 340.3417 15.38365749354701
STARLINK-1270,45237,53.0383,0.0001468,15.72501506,350.76240089717703,352.73829582265626,1 45237U 20012BM  26197.70711031  .00043474  00000+0  32192-3 0  9992,2 45237  53.0383  80.0763 0001468 193.1649 166.9330 15.72501506355790
STARLINK-1279,45360,53.0308,0.0003778,15.87667738,306.2972217775814,311.34988917329974,1 45360U 20019A   26197.81197757  .00109653  00000+0  39925-3 0  9994,2 45360  53.0308 178.8206 0003778  50.5633 309.5725 15.87667738350971
STARLINK-1301,45361,53.0294,0.0005858,15.89173536,300.684054098012,308.5135473621476,1 45361U 20019B   26197.22286690  .00102956  00000+0  34797-3 0  9996,2 45361  53.0294 183.6916 0005858  48.7989 311.3540 15.89173536350866
STARLINK-1262,45366,53.1523,0.0002406,15.37339863,452.335468205245,455.62308255695734,1 45366U 20019G   26197.61948091  .00022878  00000+0  62473-3 0  9990,2 45366  53.1523 284.2380 0002406 302.3266  57.7504 15.37339863349525
STARLINK-1273,45367,53.0397,0.000294,15.62668482,377.9656286169329,381.93938524700843,1 45367U 20019H   26197.45508051  .00052901  00000+0  58167-3 0  9996,2 45367  53.0397 253.5568 0002940 354.3444   5.7536 15.62668482349910
STARLINK-1277,45369,53.038,0.0003647,15.71041677,353.4627825122425,358.3746027344423,1 45369U 20019K   26197.45521652  .00037044  00000+0  29253-3 0  9995,2 45369  53.0380 245.1896 0003647  24.9904 335.1289 15.71041677350032
STARLINK-1281,45370,53.1544,0.0001509,15.38163516,450.5094932617867,452.5706898080116,1 45370U 20019L   26197.61020382  .00025135  00000+0  66717-3 0  9993,2 45370  53.1544 283.6943 0001509 283.8516  76.2320 15.38163516349539
STARLINK-1300,45374,53.1559,0.000211,15.3884287,448.0892377952914,450.9705132167546,1 45374U 20019Q   26197.54253786  .00025902  00000+0  67213-3 0  9999,2 45374  53.1559 283.7605 0002110 305.3626  54.7181 15.38842870349528
STARLINK-1302,45375,53.0421,9.36e-05,15.71282138,354.6014014479424,355.86188805823986,1 45375U 20019R   26197.55157824  .00035518  00000+0  27798-3 0  9995,2 45375  53.0421 240.5031 0000936  59.3800 300.7309 15.71282138350108
STARLINK-1304,45376,53.0384,0.0001475,15.66847145,366.9365718384288,368.9266620804319,1 45376U 20019S   26197.52891390  .00028071  00000+0  26486-3 0  9995,2 45376  53.0384 243.1002 0001475 345.3250  14.7722 15.66847145350065
STARLINK-1305,45377,53.0349,0.0007347,15.76644339,335.0203079715502,344.8918739594137,1 45377U 20019T   26197.45332407  .00048799  00000+0  30109-3 0  9993,2 45377  53.0349 219.4565 0007347  24.7382 335.3988 15.76644339350398
STARLINK-1319,45379,53.0325,0.0004075,15.8486171,313.9860041545844,319.44230784672436,1 45379U 20019V   26197.56595257  .00082233  00000+0  34501-3 0  9992,2 45379  53.0325 208.5836 0004075  38.3094 321.8217 15.84861710350556
STARLINK-1266,45383,53.0418,0.0004679,15.69386932,357.4983268676551,363.8044850579554,1 45383U 20019Z   26197.29237314  .00029668  00000+0  25207-3 0  9990,2 45383  53.0418 228.5261 0004679  19.5618 340.5576 15.69386932350244
STARLINK-1267,45384,53.0399,0.0002914,15.74125466,345.16118141435254,349.08066173104635,1 45384U 20019AA  26197.44938799  .00042635  00000+0  29466-3 0  9993,2 45384  53.0399 218.2092 0002914  45.6875 314.4381 15.74125466350407
STARLINK-1272,45386,53.0361,0.0003001,15.79338362,330.3003305899365,334.3279433623502,1 45386U 20019AC  26197.29526767  .00058707  00000+0  32051-3 0  9997,2 45386  53.0361 196.4428 0003001  58.6777 301.4537 15.79338362350697
STARLINK-1274,45387,53.0154,0.0005872,15.69530415,356.2839275610204,364.1974783353635,1 45387U 20019AD  26197.48640328  .00087309  00000+0  72265-3 0  9990,2 45387  53.0154 197.2547 0005872 341.7021  18.3782 15.69530415350693
STARLINK-1280,45388,53.0292,0.0006269,15.93230951,289.06592469747557,297.4305074814092,1 45388U 20019AE  26197.83335647  .00218674  29283-4  61132-3 0  9996,2 45388  53.0292 197.7202 0006269  43.2216 169.2326 15.93230951  6014
STARLINK-1283,45389,53.0328,0.0004444,15.76637496,336.9900005430227,342.96105895946494,1 45389U 20019AF  26197.39556905  .00047668  00000+0  29463-3 0  9995,2 45389  53.0328 195.2511 0004444  18.5055 341.6125 15.76637496350729
STARLINK-1284,45390,53.0384,0.0004273,15.74593302,342.91560343479887,348.6618703695549,1 45390U 20019AG  26197.33037119  .00040920  00000+0  27733-3 0  9994,2 45390  53.0384 219.9827 0004273  70.4864 289.6616 15.74593302350363
STARLINK-1297,45395,53.0382,0.0003878,15.77856925,333.9097969964814,339.11768010930246,1 45395U 20019AM  26197.81709078  .00055253  00000+0  32270-3 0  9999,2 45395  53.0382 216.1835 0003878  39.8443 320.2861 15.77856925349645
STARLINK-1307,45397,53.0499,0.0002599,15.59226038,388.13680127643784,391.6548247326382,1 45397U 20019AP  26197.49552851  .00022364  00000+0  28537-3 0  9998,2 45397  53.0499 228.1933 0002599   8.9566 351.1492 15.59226038350090
STARLINK-1255,45399,53.0308,0.0001618,15.69278473,359.8715122774047,362.05228468095356,1 45399U 20019AR  26197.29824208  .00030880  00000+0  26339-3 0  9996,2 45399  53.0308 194.2404 0001618 354.3160   5.7837 15.69278473350531
STARLINK-1260,45404,53.1527,0.0001881,15.41394161,440.71089889228006,443.27663208625745,1 45404U 20019AW  26197.37899772  .00018895  00000+0  45394-3 0  9994,2 45404  53.1527 246.6200 0001881 317.2000  42.8859 15.41394161349741
STARLINK-1263,45405,53.154,0.0003368,15.38429579,448.45266188709775,453.0526019431554,1 45405U 20019AX  26197.68336309  .00022724  00000+0  59909-3 0  9994,2 45405  53.1540 247.2634 0003368 321.3013  38.7749 15.38429579349769
STARLINK-1265,45406,53.1522,0.0002521,15.41896295,438.794007436386,442.23197076088854,1 45406U 20019AY  26197.55594963  .00028264  00000+0  66231-3 0  9994,2 45406  53.1522 245.6621 0002521 358.0931   2.0064 15.41896295349776
STARLINK-1278,45408,53.0354,0.0003153,15.79057697,330.99321050478466,335.22532240041073,1 45408U 20019BA  26197.56357791  .00056332  00000+0  31169-3 0  9992,2 45408  53.0354 216.0674 0003153  45.0047 315.1228 15.79057697350164
STARLINK-1296,45412,53.1528,0.0001453,15.42025769,439.14061054182,441.1219993112327,1 45412U 20019BE  26197.52623193  .00024680  00000+0  57733-3 0  9991,2 45412  53.1528 245.4441 0001453 338.2400  21.8544 15.42025769349774
STARLINK-1309,45414,53.0563,0.0003501,15.77178605,336.0873719729934,340.7903183797853,1 45414U 20019BG  26197.42825549  .00046619  00000+0  28153-3 0  9991,2 45414  53.0563 211.1785 0003501  47.8978 312.2339 15.77178605350209
